STARLINK-5393           
1 54832U 22177N   23264.59973088 -.00000460  00000+0 -18995-4 0  9994
2 54832  43.0046 331.5883 0001133 276.1310  83.9403 15.02543526 41702
STARLINK-5391           
1 54833U 22177P   23264.62600519  .00004934  00000+0  38002-3 0  9993
2 54833  43.0044 343.9207 0001315 283.2429  76.8267 15.02537856 41562
STARLINK-5386           
1 54834U 22177Q   23264.62156112  .00013320  00000+0  99896-3 0  9996
2 54834  43.0037 343.8865 0001280 259.0267 101.0431 15.02545434 41572
STARLINK-5389           
1 54835U 22177R   23264.62711363  .00005030  00000+0  38715-3 0  9994
2 54835  43.0048 343.9285 0001304 280.8268  79.2427 15.02538936 41561
STARLINK-5384           
1 54836U 22177S   23264.28584157  .00001635  00000+0  13612-3 0  9992
2 54836  43.0047 345.6685 0001024 282.4710  77.6017 15.02528843 41522
STARLINK-5369           
1 54837U 22177T   23264.62044854  .00016756  00000+0  12519-2 0  9990
2 54837  43.0042 343.8777 0001389 289.7694  70.2999 15.02553712 41560
STARLINK-5372           
1 54838U 22177U   23264.61157396  .00018212  00000+0  13592-2 0  9997
2 54838  43.0037 343.8128 0001257 289.8855  70.1852 15.02550943 41569
STARLINK-5110           
1 54839U 22177V   23264.27363227 -.00000009  00000+0  14413-4 0  9993
2 54839  43.0044 345.5756 0001429 278.5274  81.5406 15.02534922 41510
STARLINK-5368           
1 54840U 22177W   23264.27140808  .00001331  00000+0  11359-3 0  9996
2 54840  43.0050 345.5581 0001524 281.3232  78.7440 15.02537651 41515
STARLINK-4659           
1 54841U 22177X   23264.61490029  .00006996  00000+0  53234-3 0  9998
2 54841  43.0038 343.8376 0001236 272.1897  87.8804 15.02541161 41561
STARLINK-5387           
1 54842U 22177Y   23264.66362041  .00018853  00000+0  14062-2 0  9996
2 54842  43.0039 343.3408 0001420 292.9845  67.0847 15.02555141 41573
STARLINK-5304           
1 54843U 22177Z   23264.27695865  .00001129  00000+0  98658-4 0  9990
2 54843  43.0039 345.6012 0001282 261.4583  98.6114 15.02537622 41511
STARLINK-5388           
1 54844U 22177AA  23264.65806872 -.00000259  00000+0 -40908-5 0  9996
2 54844  43.0046 343.2755 0001480 286.0126  74.0553 15.02543414 41571
STARLINK-5082           
1 54845U 22177AB  23264.60047430  .00016487  00000+0  12323-2 0  9994
2 54845  43.0035 343.7282 0001375 265.1355  94.9331 15.02548525 41567
STARLINK-5360           
1 54846U 22177AC  23264.66139156  .00000031  00000+0  17375-4 0  9990
2 54846  43.0044 343.3222 0001240 283.2284  76.8420 15.02547901 41577
STARLINK-5061           
1 54847U 22177AD  23264.62095932 -.00001731  00000+0 -11304-3 0  9995
2 54847  43.0045 317.8684 0001293 254.0322 106.0378 15.02545096 41867
STARLINK-5432           
1 54848U 22177AE  23264.26179818 -.00000464  00000+0 -19322-4 0  9993
2 54848  43.0023 333.3337 0000758 244.8667 115.2096 15.02527498 41658
STARLINK-5434           
1 54849U 22177AF  23264.65695733 -.00000566  00000+0 -26794-4 0  9990
2 54849  43.0053 343.2863 0001196 266.9360  93.1346 15.02532988 41571
STARLINK-5087           
1 54850U 22177AG  23264.58862979 -.00000837  00000+0 -46854-4 0  9992
2 54850  43.0046 331.4893 0001195 281.3802  78.6906 15.02545121 41706
STARLINK-5084           
1 54851U 22177AH  23264.59197306  .00016006  00000+0  11970-2 0  9991
2 54851  43.0032 331.5134 0001338 288.6961  71.3736 15.02543913 41704
STARLINK-5418           
1 54852U 22177AJ  23264.58308842  .00017142  00000+0  12805-2 0  9990
2 54852  43.0033 331.4462 0001395 291.2850  68.7843 15.02549701 41709
STARLINK-5427           
1 54853U 22177AK  23264.58642008  .00016963  00000+0  12674-2 0  9990
2 54853  43.0034 331.4733 0001286 292.9915  67.0792 15.02546595 41704
STARLINK-5419           
1 54854U 22177AL  23264.57753903  .00011224  00000+0  84449-3 0  9992
2 54854  43.0036 331.4043 0001275 289.8099  70.2605 15.02540729 41709
STARLINK-5416           
1 54855U 22177AM  23264.57975778  .00014611  00000+0  10941-2 0  9997
2 54855  43.0037 331.4215 0001317 284.0032  76.0664 15.02548247 41705
STARLINK-5086           
1 54856U 22177AN  23264.89216944  .00008953  00000+0  67682-3 0  9993
2 54856  43.0034 329.4648 0001321 285.4304  74.6393 15.02546626 41759
STARLINK-5078           
1 54857U 22177AP  23264.24208376 -.00000536  00000+0 -24004-4 0  9996
2 54857  43.0027 333.1918 0001171 258.4383 101.6328 15.03346364 41650
STARLINK-5407           
1 54858U 22177AQ  23264.57198901  .00016444  00000+0  12291-2 0  9991
2 54858  43.0036 331.3616 0001351 291.3291  68.7407 15.02548636 41702
STARLINK-5409           
1 54859U 22177AR  23264.89550070  .00004092  00000+0  31780-3 0  9997
2 54859  43.0010 329.4894 0000750 321.0900  38.9888 15.02540284 41759
STARLINK-5406           
1 54860U 22177AS  23264.88994363  .00002139  00000+0  17335-3 0  9995
2 54860  43.0037 329.4477 0001111 259.4406 100.6312 15.02543020 41754
STARLINK-5400           
1 54861U 22177AT  23264.57420618 -.00001374  00000+0 -86707-4 0  9991
2 54861  43.0025 331.3753 0000613 264.5359  95.5414 15.02535559 41709
STARLINK-5403           
1 54862U 22177AU  23264.59751932  .00010051  00000+0  75795-3 0  9994
2 54862  43.0031 331.5689 0001232 281.0563  79.0140 15.02539601 41701
STARLINK-5405           
1 54863U 22177AV  23264.89771108 -.00001218  00000+0 -75118-4 0  9992
2 54863  43.0047 329.5068 0001177 284.0834  75.9877 15.02542699 41757
STARLINK-5359           
1 54864U 22177AW  23264.62070011  .00002782  00000+0  22086-3 0  9999
2 54864  43.0036 330.8675 0001294 283.6422  76.4276 15.02546909 41716
STARLINK-5411           
1 54865U 22177AX  23264.90104774  .00010674  00000+0  80372-3 0  9996
2 54865  43.0037 329.5322 0001346 295.9880  64.0823 15.02549686 41754
STARLINK-5398           
1 54866U 22177AY  23264.87773163  .00003169  00000+0  24959-3 0  9997
2 54866  43.0044 329.3556 0001053 282.8624  77.2101 15.02529040 41753
STARLINK-5396           
1 54867U 22177AZ  23264.62292735  .00017674  00000+0  13195-2 0  9997
2 54867  43.0036 330.8839 0001478 282.0727  77.9950 15.02553033 41717
STARLINK-5379           
1 54868U 22177BA  23264.87216714 -.00012461  00000+0 -90812-3 0  9991
2 54868  43.0038 329.3133 0001334 307.9075  52.1646 15.02571304 41756
STARLINK-5402           
1 54869U 22177BB  23264.88106433 -.00001630  00000+0 -10558-3 0  9994
2 54869  43.0046 329.3819 0001072 280.0725  79.9996 15.02541819 41752
STARLINK-5401           
1 54870U 22177BC  23264.87440584 -.00000289  00000+0 -63616-5 0  9997
2 54870  43.0001 329.3301 0000954 273.8256  86.2477 15.02536275 41753
STARLINK-5397           
1 54871U 22177BD  23264.88328918  .00010934  00000+0  82295-3 0  9993
2 54871  43.0035 329.3969 0001253 288.5816  71.4890 15.02546924 41756
STARLINK-5390           
1 54872U 22177BE  23264.86663723  .00001984  00000+0  16188-3 0  9991
2 54872  43.0035 329.2975 0000886 278.9151  81.1591 15.02530633 41755
STARLINK-5091           
1 54873U 22177BF  23264.86885831  .00000014  00000+0  16106-4 0  9992
2 54873  43.0047 329.2889 0001494 272.1144  87.9528 15.02541806 41755
STARLINK-5277           
1 55269U 23010A   23264.89724729  .00000001  00000+0  78397-5 0  9997
2 55269  70.0002 153.2393 0002757 258.3553 101.7297 14.98324574 38281
STARLINK-5301           
1 55270U 23010B   23264.90976867 -.00000056  00000+0  31074-5 0  9995
2 55270  70.0004 153.2836 0003054 273.2162  86.8648 14.98327590 38004
STARLINK-5306           
1 55271U 23010C   23264.90141938  .00000143  00000+0  19787-4 0  9991
2 55271  70.0012 153.2560 0002720 264.2232  95.8617 14.98327402 38003
STARLINK-5310           
1 55272U 23010D   23264.91394215 -.00000456  00000+0 -30467-4 0  9998
2 55272  70.0001 153.2990 0003179 271.6159  88.4635 14.98326758 38009
STARLINK-5291           
1 55273U 23010E   23264.89305757  .00000655  00000+0  62629-4 0  9993
2 55273  70.0023 153.2289 0002501 252.6425 107.4460 14.98337933 38003
STARLINK-5236           
1 55274U 23010F   23264.88869077 -.00002171  00000+0 -17425-3 0  9993
2 55274  70.0002 133.3434 0002996 269.5565  90.5251 14.98317925 38494
STARLINK-5260           
1 55275U 23010G   23264.88449768 -.00000307  00000+0 -17970-4 0  9990
2 55275  70.0010 133.3293 0002846 267.6553  92.4280 14.98327490 38498
STARLINK-5261           
1 55276U 23010H   23264.88032213 -.00000390  00000+0 -24906-4 0  9993
2 55276  70.0013 133.3145 0002723 260.4190  99.6662 14.98328871 38486
STARLINK-5299           
1 55277U 23010J   23264.88889829 -.00000441  00000+0 -29163-4 0  9994
2 55277  70.0016 153.2119 0002815 268.2391  91.8445 14.98324041 38009
STARLINK-5289           
1 55278U 23010K   23264.87219737 -.00000081  00000+0  10124-5 0  9996
2 55278  69.9998 153.1504 0003077 268.5558  91.5248 14.98329404 37995
STARLINK-5323           
1 55279U 23010L   23264.88472007 -.00000434  00000+0 -28559-4 0  9992
2 55279  70.0021 153.1984 0002618 262.1660  97.9202 14.98329157 38000
STARLINK-5331           
1 55280U 23010M   23264.86802358  .00000035  00000+0  10755-4 0  9992
2 55280  70.0000 153.1324 0002918 266.9929  93.0896 14.98326389 37997
STARLINK-5298           
1 55281U 23010N   23264.88054569  .00000071  00000+0  13716-4 0  9998
2 55281  70.0003 153.1795 0003044 267.3832  92.6979 14.98327983 37990
STARLINK-5330           
1 55282U 23010P   23264.85967624  .00000075  00000+0  14105-4 0  9998
2 55282  69.9999 153.1044 0003091 275.8911  84.1896 14.98327663 37992
STARLINK-5317           
1 55283U 23010Q   23264.87637175  .00000327  00000+0  35176-4 0  9997
2 55283  70.0021 153.1682 0002519 262.7796  97.3076 14.98326742 37993
STARLINK-5337           
1 55284U 23010R   23264.85550290 -.00000446  00000+0 -29593-4 0  9998
2 55284  70.0016 153.0922 0002821 265.4331  94.6506 14.98327618 37996
STARLINK-5332           
1 55285U 23010S   23264.89259475 -.00002047  00000+0 -16388-3 0  9990
2 55285  69.9998 113.0718 0002755 256.8343 103.2509 14.98319490 39862
